NORAD_CAT_ID,OBJECT_NAME,OBJECT_TYPE,EPOCH,MEAN_MOTION,ECCENTRICITY,INCLINATION,RA_OF_ASC_NODE,ARG_OF_PERICENTER,MEAN_ANOMALY,BSTAR,MEAN_MOTION_DOT,MEAN_MOTION_DDOT,TLE_LINE0,TLE_LINE1,TLE_LINE2,SEMIMAJOR_AXIS,PERIOD,APOGEE,PERIGEE,DECAYED
53830.0,STARLINK-4761,PAYLOAD,2023-09-12 17:48:44,15.08844218,0.0001381,53.2167,64.3713,83.0635,277.0515,0.00011275,1.507e-05,0.0,0 STARLINK-4761,1 53830U 22114N   23255.74218039  .00001507  00000-0  11275-3 0  9992,2 53830  53.2167  64.3713 0001381  83.0635 277.0515 15.08844218 55612,6917.867,95.437,540.688,538.777,0.0
53830.0,STARLINK-4761,PAYLOAD,2023-09-12 20:59:30,15.08850326,0.0001353,53.2167,63.7762,83.0059,277.1087,0.00019556,2.827e-05,0.0,0 STARLINK-4761,1 53830U 22114N   23255.87465723  .00002827  00000-0  19556-3 0  9996,2 53830  53.2167  63.7762 0001353  83.0059 277.1087 15.08850326 55092,6917.849,95.437,540.65,538.778,0.0
53830.0,STARLINK-4761,PAYLOAD,2023-09-13 20:50:17,15.08853628,0.0001441,53.2181,59.3142,93.9677,266.148,0.00022289,3.262e-05,0.0,0 STARLINK-4761,1 53830U 22114N   23256.86825234  .00003262  00000-0  22289-3 0  9994,2 53830  53.2181  59.3142 0001441  93.9677 266.1480 15.08853628 55784,6917.839,95.437,540.701,538.707,0.0
53830.0,STARLINK-4761,PAYLOAD,2023-09-13 22:25:39,15.08858016,0.0001406,53.2177,59.0174,90.623,269.4923,0.00026782,3.979e-05,0.0,0 STARLINK-4761,1 53830U 22114N   23256.93448930  .00003979  00000-0  26782-3 0  9993,2 53830  53.2177  59.0174 0001406  90.6230 269.4923 15.08858016 55257,6917.825,95.436,540.663,538.718,0.0
53830.0,STARLINK-4761,PAYLOAD,2023-09-14 17:30:19,15.08829935,0.000135,53.2175,55.4499,95.1501,264.9646,-9.0149e-05,-1.722e-05,0.0,0 STARLINK-4761,1 53830U 22114N   23257.72938785 -.00001722  00000-0 -90149-4 0  9998,2 53830  53.2175  55.4499 0001350  95.1501 264.9646 15.08829935 55377,6917.911,95.438,540.71,538.842,0.0
53830.0,STARLINK-4761,PAYLOAD,2023-09-14 20:41:05,15.08829185,0.0001331,53.2173,54.8545,94.4817,265.6327,-0.00010181,-1.907e-05,0.0,0 STARLINK-4761,1 53830U 22114N   23257.86186857 -.00001907  00000-0 -10181-3 0  9990,2 53830  53.2173  54.8545 0001331  94.4817 265.6327 15.08829185 55934,6917.913,95.438,540.699,538.858,0.0
53830.0,STARLINK-4761,PAYLOAD,2023-09-15 10:59:33,15.0884654,0.000124,53.2178,52.1777,95.0059,265.1075,0.00011655,1.568e-05,0.0,0 STARLINK-4761,1 53830U 22114N   23258.45802225  .00001568  00000-0  11655-3 0  9998,2 53830  53.2178  52.1777 0001240  95.0059 265.1075 15.08846540 55480,6917.86,95.437,540.583,538.868,0.0
53830.0,STARLINK-4761,PAYLOAD,2023-09-15 22:07:15,15.08864076,0.0001208,53.2176,50.0963,98.3826,261.7303,0.0010513,0.00016494,0.0,0 STARLINK-4761,1 53830U 22114N   23258.92170179  .00016494  00000-0  10513-2 0  9991,2 53830  53.2176  50.0963 0001208  98.3826 261.7303 15.08864076 55552,6917.807,95.436,540.507,538.836,0.0
53830.0,STARLINK-4761,PAYLOAD,2023-09-16 14:01:06,15.0884455,0.0001161,53.2177,47.1229,93.5161,266.5964,0.00023501,3.455e-05,0.0,0 STARLINK-4761,1 53830U 22114N   23259.58410502  .00003455  00000-0  23501-3 0  9996,2 53830  53.2177  47.1229 0001161  93.5161 266.5964 15.08844550 56194,6917.866,95.437,540.535,538.928,0.0
53830.0,STARLINK-4761,PAYLOAD,2023-09-16 17:11:52,15.08847198,0.0001117,53.2178,46.5283,87.5966,272.5154,0.0004322,6.599e-05,0.0,0 STARLINK-4761,1 53830U 22114N   23259.71658489  .00006599  00000-0  43220-3 0  9991,2 53830  53.2178  46.5283 0001117  87.5966 272.5154 15.08847198 55676,6917.858,95.437,540.496,538.951,0.0
53830.0,STARLINK-4761,PAYLOAD,2023-09-16 20:22:39,15.08849685,0.000111,53.2177,45.9331,83.0665,277.0453,0.00060435,9.346e-05,0.0,0 STARLINK-4761,1 53830U 22114N   23259.84906495  .00009346  00000-0  60435-3 0  9998,2 53830  53.2177  45.9331 0001110  83.0665 277.0453 15.08849685 56230,6917.851,95.437,540.484,538.948,0.0
53830.0,STARLINK-4761,PAYLOAD,2023-09-17 17:02:40,15.08855165,0.0001246,53.2186,42.0689,86.7004,273.413,0.00072779,0.00011319,0.0,0 STARLINK-4761,1 53830U 22114N   23260.71018522  .00011319  00000-0  72779-3 0  9998,2 53830  53.2186  42.0689 0001246  86.7004 273.4130 15.08855165 55827,6917.834,95.437,540.561,538.837,0.0
53830.0,STARLINK-4761,PAYLOAD,2023-09-18 02:34:58,15.08834764,7.25e-05,53.2182,40.2839,98.0375,262.0699,9.6167e-05,1.243e-05,0.0,0 STARLINK-4761,1 53830U 22114N   23261.10762721  .00001243  00000-0  96167-4 0  9992,2 53830  53.2182  40.2839 0000725  98.0375 262.0699 15.08834764 55880,6917.896,95.438,540.263,539.26,0.0
53830.0,STARLINK-4761,PAYLOAD,2023-09-18 13:42:40,15.0883692,6.71e-05,53.2184,38.2025,98.8189,261.2879,7.9293e-05,9.74e-06,0.0,0 STARLINK-4761,1 53830U 22114N   23261.57130746  .00000974  00000-0  79293-4 0  9990,2 53830  53.2184  38.2025 0000671  98.8189 261.2879 15.08836920 56492,6917.89,95.438,540.219,539.291,0.0
53830.0,STARLINK-4761,PAYLOAD,2023-09-18 16:53:27,15.08849274,0.0001259,53.2181,37.6058,87.519,272.5946,0.00045327,6.935e-05,0.0,0 STARLINK-4761,1 53830U 22114N   23261.70378657  .00006935  00000-0  45327-3 0  9993,2 53830  53.2181  37.6058 0001259  87.5190 272.5946 15.08849274 55976,6917.852,95.437,540.588,538.846,0.0
53830.0,STARLINK-4761,PAYLOAD,2023-09-18 18:28:50,15.08849913,0.0001415,53.2185,37.3109,75.9228,284.1922,0.00065538,0.00010161,0.0,0 STARLINK-4761,1 53830U 22114N   23261.77002766  .00010161  00000-0  65538-3 0  9997,2 53830  53.2185  37.3109 0001415  75.9228 284.1922 15.08849913 56526,6917.85,95.437,540.694,538.736,0.0
53830.0,STARLINK-4761,PAYLOAD,2023-09-19 02:25:45,15.0883817,2.41e-05,53.2192,35.8245,189.8215,170.2773,-1.6182e-05,-5.45e-06,0.0,0 STARLINK-4761,1 53830U 22114N   23262.10122336 -.00000545  00000-0 -16182-4 0  9990,2 53830  53.2192  35.8245 0000241 189.8215 170.2773 15.08838170 56033,6917.886,95.438,539.918,539.584,0.0
53830.0,STARLINK-4761,PAYLOAD,2023-09-19 15:08:50,15.088566,0.0001455,53.2177,33.4447,95.7304,264.3854,0.00058645,9.062e-05,0.0,0 STARLINK-4761,1 53830U 22114N   23262.63114292  .00009062  00000-0  58645-3 0  9990,2 53830  53.2177  33.4447 0001455  95.7304 264.3854 15.08856600 56118,6917.83,95.437,540.701,538.688,0.0
53830.0,STARLINK-4761,PAYLOAD,2023-09-19 21:30:22,15.08872974,0.0001536,53.2188,32.2546,95.9697,264.1471,0.00092363,0.00014455,0.0,0 STARLINK-4761,1 53830U 22114N   23262.89609616  .00014455  00000-0  92363-3 0  9994,2 53830  53.2188  32.2546 0001536  95.9697 264.1471 15.08872974 56153,6917.78,95.435,540.707,538.582,0.0
53830.0,STARLINK-4761,PAYLOAD,2023-09-20 11:48:52,15.08810417,0.0001133,53.2189,29.5801,98.7856,261.3265,-0.00073331,-0.0001193,0.0,0 STARLINK-4761,1 53830U 22114N   23263.49227305 -.00011930  00000-0 -73331-3 0  9993,2 53830  53.2189  29.5801 0001133  98.7856 261.3265 15.08810417 56242,6917.971,95.439,540.62,539.052,0.0
53830.0,STARLINK-4761,PAYLOAD,2023-09-20 14:59:38,15.08815696,0.0001555,53.2191,28.9834,117.8075,242.3075,-0.00029127,-4.917e-05,0.0,0 STARLINK-4761,1 53830U 22114N   23263.62475415 -.00004917  00000-0 -29127-3 0  9996,2 53830  53.2191  28.9834 0001555 117.8075 242.3075 15.08815696 56802,6917.955,95.439,540.895,538.744,0.0
53830.0,STARLINK-4761,PAYLOAD,2023-09-20 19:45:48,15.08822951,0.0001489,53.2187,28.0915,112.5931,247.5218,0.00047467,7.271e-05,0.0,0 STARLINK-4761,1 53830U 22114N   23263.82347787  .00007271  00000-0  47467-3 0  9999,2 53830  53.2187  28.0915 0001489 112.5931 247.5218 15.08822951 56838,6917.933,95.439,540.828,538.767,0.0
53830.0,STARLINK-4761,PAYLOAD,2023-09-21 08:28:53,15.08851117,0.0001363,53.2186,25.713,109.0038,251.1102,0.0017347,0.00027436,0.0,0 STARLINK-4761,1 53830U 22114N   23264.35340068  .00027436  00000-0  17347-2 0  9991,2 53830  53.2186  25.7130 0001363 109.0038 251.1102 15.08851117 56378,6917.846,95.437,540.654,538.769,0.0
53830.0,STARLINK-4761,PAYLOAD,2023-09-21 13:15:02,15.08864843,0.0001263,53.2182,24.8224,103.5771,256.5362,0.0017974,0.00028453,0.0,0 STARLINK-4761,1 53830U 22114N   23264.55211777  .00028453  00000-0  17974-2 0  9993,2 53830  53.2182  24.8224 0001263 103.5771 256.5362 15.08864843 56940,6917.804,95.436,540.543,538.796,0.0
53830.0,STARLINK-4761,PAYLOAD,2023-09-21 19:36:34,15.08881656,0.0001276,53.2184,23.6327,103.0487,257.0647,0.0018595,0.00029464,0.0,0 STARLINK-4761,1 53830U 22114N   23264.81707152  .00029464  00000-0  18595-2 0  9992,2 53830  53.2184  23.6327 0001276 103.0487 257.0647 15.08881656 56983,6917.753,95.435,540.501,538.735,0.0
53830.0,STARLINK-4761,PAYLOAD,2023-09-22 08:19:40,15.08858154,0.0001566,53.2184,21.2542,99.2699,260.847,0.00078548,0.00012241,0.0,0 STARLINK-4761,1 53830U 22114N   23265.34699153  .00012241  00000-0  78548-3 0  9992,2 53830  53.2184  21.2542 0001566  99.2699 260.8470 15.08858154 56522,6917.825,95.436,540.773,538.607,0.0
53830.0,STARLINK-4761,PAYLOAD,2023-09-22 13:05:49,15.08860275,0.0001271,53.2186,20.3626,103.3544,256.759,0.0016905,0.00026734,0.0,0 STARLINK-4761,1 53830U 22114N   23265.54571165  .00026734  00000-0  16905-2 0  9996,2 53830  53.2186  20.3626 0001271 103.3544 256.7590 15.08860275 57093,6917.818,95.436,540.563,538.804,0.0
53830.0,STARLINK-4761,PAYLOAD,2023-09-22 19:27:21,15.08870121,0.0001144,53.2182,19.1732,89.4154,270.6969,0.001852,0.00029334,0.0,0 STARLINK-4761,1 53830U 22114N   23265.81066833  .00029334  00000-0  18520-2 0  9991,2 53830  53.2182  19.1732 0001144  89.4154 270.6969 15.08870121 57134,6917.788,95.436,540.445,538.862,0.0
53830.0,STARLINK-4761,PAYLOAD,2023-09-23 00:13:31,15.0883886,0.0001686,53.2183,18.2808,79.407,280.7112,0.0016835,0.00026606,0.0,0 STARLINK-4761,1 53830U 22114N   23266.00939270  .00026606  00000-0  16835-2 0  9993,2 53830  53.2183  18.2808 0001686  79.4070 280.7112 15.08838860 56625,6917.884,95.438,540.915,538.583,0.0
53830.0,STARLINK-4761,PAYLOAD,2023-09-23 12:56:36,15.08844941,0.0001264,53.2182,15.9019,82.0083,278.1053,0.00089575,0.00013999,0.0,0 STARLINK-4761,1 53830U 22114N   23266.53931077  .00013999  00000-0  89575-3 0  9991,2 53830  53.2182  15.9019 0001264  82.0083 278.1053 15.08844941 56709,6917.865,95.437,540.605,538.856,0.0
